[{"OBJECT_NAME":"YAOGAN-24","OBJECT_ID":"2014-072A","EPOCH":"2026-03-09T23:33:58.619808","MEAN_MOTION":14.76230497,"ECCENTRICITY":0.00123495,"INCLINATION":98.131,"RA_OF_ASC_NODE":205.5775,"ARG_OF_PERICENTER":217.5868,"MEAN_ANOMALY":142.4479,"EPHEMERIS_TYPE":0,"CLASSIFICATION_TYPE":"U","NORAD_CAT_ID":40310,"ELEMENT_SET_NO":999,"REV_AT_EPOCH":60908,"BSTAR":0.00015342398,"MEAN_MOTION_DOT":1.01e-5,"MEAN_MOTION_DDOT":0},{"OBJECT_NAME":"SOHLA-1 (MAIDO-1)","OBJECT_ID":"2009-002E","EPOCH":"2026-03-09T23:21:14.727168","MEAN_MOTION":14.74915956,"ECCENTRICITY":0.00054362,"INCLINATION":98.1471,"RA_OF_ASC_NODE":333.1233,"ARG_OF_PERICENTER":346.0934,"MEAN_ANOMALY":14.0124,"EPHEMERIS_TYPE":0,"CLASSIFICATION_TYPE":"U","NORAD_CAT_ID":33496,"ELEMENT_SET_NO":999,"REV_AT_EPOCH":91936,"BSTAR":0.00012144776,"MEAN_MOTION_DOT":7.63e-6,"MEAN_MOTION_DDOT":0}]
